[{"OBJECT_NAME":"ONEWEB-0231","OBJECT_ID":"2021-045R","EPOCH":"2026-03-09T15:22:24.775392","MEAN_MOTION":13.15548032,"ECCENTRICITY":0.0001777,"INCLINATION":87.8939,"RA_OF_ASC_NODE":279.0747,"ARG_OF_PERICENTER":97.7344,"MEAN_ANOMALY":262.3988,"EPHEMERIS_TYPE":0,"CLASSIFICATION_TYPE":"U","NORAD_CAT_ID":48782,"ELEMENT_SET_NO":999,"REV_AT_EPOCH":23125,"BSTAR":0.00033447,"MEAN_MOTION_DOT":1.39e-6,"MEAN_MOTION_DDOT":0},{"OBJECT_NAME":"THORAD AGENA D DEB","OBJECT_ID":"1970-025BF","EPOCH":"2026-03-09T23:02:48.250752","MEAN_MOTION":13.24473571,"ECCENTRICITY":0.01435524,"INCLINATION":99.7429,"RA_OF_ASC_NODE":87.0906,"ARG_OF_PERICENTER":31.6821,"MEAN_ANOMALY":27.5243,"EPHEMERIS_TYPE":0,"CLASSIFICATION_TYPE":"U","NORAD_CAT_ID":4682,"ELEMENT_SET_NO":999,"REV_AT_EPOCH":69495,"BSTAR":0.0007013194,"MEAN_MOTION_DOT":2.78e-6,"MEAN_MOTION_DDOT":0}]
